CCSDS_OMM_VERS = 2.0
CREATION_DATE  = 
ORIGINATOR     = 

OBJECT_NAME    = STARLINK-35584
OBJECT_ID      = 2025-236W
CENTER_NAME    = EARTH
REF_FRAME      = TEME
TIME_SYSTEM    = UTC
MEAN_ELEMENT_THEORY = SGP/SGP4

EPOCH          = 2025-11-07T02:21:43.106976
MEAN_MOTION    = 15.74091298
ECCENTRICITY   = .0000859
INCLINATION    = 53.1574
RA_OF_ASC_NODE = 316.9916
ARG_OF_PERICENTER = 79.2631
MEAN_ANOMALY   = 280.8485

EPHEMERIS_TYPE = 0
CLASSIFICATION_TYPE = U
NORAD_CAT_ID   = 66106
ELEMENT_SET_NO = 999
REV_AT_EPOCH   = 412
BSTAR          = .98185E-3
MEAN_MOTION_DOT = .14505E-2
MEAN_MOTION_DDOT = 0

CCSDS_OMM_VERS = 2.0
CREATION_DATE  = 
ORIGINATOR     = 

OBJECT_NAME    = STARLINK-35593
OBJECT_ID      = 2025-236X
CENTER_NAME    = EARTH
REF_FRAME      = TEME
TIME_SYSTEM    = UTC
MEAN_ELEMENT_THEORY = SGP/SGP4

EPOCH          = 2025-11-07T02:21:13.699008
MEAN_MOTION    = 15.74102640
ECCENTRICITY   = .0001173
INCLINATION    = 53.1574
RA_OF_ASC_NODE = 316.9896
ARG_OF_PERICENTER = 107.4714
MEAN_ANOMALY   = 252.6434

EPHEMERIS_TYPE = 0
CLASSIFICATION_TYPE = U
NORAD_CAT_ID   = 66107
ELEMENT_SET_NO = 999
REV_AT_EPOCH   = 412
BSTAR          = .12866E-2
MEAN_MOTION_DOT = .191422E-2
MEAN_MOTION_DDOT = 0

CCSDS_OMM_VERS = 2.0
CREATION_DATE  = 
ORIGINATOR     = 

OBJECT_NAME    = STARLINK-35590
OBJECT_ID      = 2025-236Y
CENTER_NAME    = EARTH
REF_FRAME      = TEME
TIME_SYSTEM    = UTC
MEAN_ELEMENT_THEORY = SGP/SGP4

EPOCH          = 2025-11-07T02:20:15.480096
MEAN_MOTION    = 15.74088113
ECCENTRICITY   = .0000727
INCLINATION    = 53.1575
RA_OF_ASC_NODE = 316.9852
ARG_OF_PERICENTER = 47.8241
MEAN_ANOMALY   = 312.2841

EPHEMERIS_TYPE = 0
CLASSIFICATION_TYPE = U
NORAD_CAT_ID   = 66108
ELEMENT_SET_NO = 999
REV_AT_EPOCH   = 406
BSTAR          = .99754E-3
MEAN_MOTION_DOT = .1474E-2
MEAN_MOTION_DDOT = 0

CCSDS_OMM_VERS = 2.0
CREATION_DATE  = 
ORIGINATOR     = 

OBJECT_NAME    = STARLINK-35545
OBJECT_ID      = 2025-236Z
CENTER_NAME    = EARTH
REF_FRAME      = TEME
TIME_SYSTEM    = UTC
MEAN_ELEMENT_THEORY = SGP/SGP4

EPOCH          = 2025-11-07T02:20:44.259072
MEAN_MOTION    = 15.74102796
ECCENTRICITY   = .0001323
INCLINATION    = 53.1575
RA_OF_ASC_NODE = 316.9872
ARG_OF_PERICENTER = 124.4938
MEAN_ANOMALY   = 235.6207

EPHEMERIS_TYPE = 0
CLASSIFICATION_TYPE = U
NORAD_CAT_ID   = 66109
ELEMENT_SET_NO = 999
REV_AT_EPOCH   = 412
BSTAR          = .13378E-2
MEAN_MOTION_DOT = .199256E-2
MEAN_MOTION_DDOT = 0

CCSDS_OMM_VERS = 2.0
CREATION_DATE  = 
ORIGINATOR     = 

OBJECT_NAME    = STARLINK-35427
OBJECT_ID      = 2025-236AA
CENTER_NAME    = EARTH
REF_FRAME      = TEME
TIME_SYSTEM    = UTC
MEAN_ELEMENT_THEORY = SGP/SGP4

EPOCH          = 2025-11-07T02:19:45.463008
MEAN_MOTION    = 15.74078306
ECCENTRICITY   = .0001522
INCLINATION    = 53.1575
RA_OF_ASC_NODE = 316.9820
ARG_OF_PERICENTER = 46.0229
MEAN_ANOMALY   = 314.0916

EPHEMERIS_TYPE = 0
CLASSIFICATION_TYPE = U
NORAD_CAT_ID   = 66110
ELEMENT_SET_NO = 999
REV_AT_EPOCH   = 412
BSTAR          = .12334E-2
MEAN_MOTION_DOT = .183107E-2
MEAN_MOTION_DDOT = 0

CCSDS_OMM_VERS = 2.0
CREATION_DATE  = 
ORIGINATOR     = 

OBJECT_NAME    = STARLINK-35574
OBJECT_ID      = 2025-236AB
CENTER_NAME    = EARTH
REF_FRAME      = TEME
TIME_SYSTEM    = UTC
MEAN_ELEMENT_THEORY = SGP/SGP4

EPOCH          = 2025-11-07T02:19:16.707360
MEAN_MOTION    = 15.74114079
ECCENTRICITY   = .0001246
INCLINATION    = 53.1575
RA_OF_ASC_NODE = 316.9804
ARG_OF_PERICENTER = 113.7246
MEAN_ANOMALY   = 246.3904

EPHEMERIS_TYPE = 0
CLASSIFICATION_TYPE = U
NORAD_CAT_ID   = 66111
ELEMENT_SET_NO = 999
REV_AT_EPOCH   = 406
BSTAR          = .70725E-3
MEAN_MOTION_DOT = .103897E-2
MEAN_MOTION_DDOT = 0

CCSDS_OMM_VERS = 2.0
CREATION_DATE  = 
ORIGINATOR     = 

OBJECT_NAME    = STARLINK-35531
OBJECT_ID      = 2025-236AC
CENTER_NAME    = EARTH
REF_FRAME      = TEME
TIME_SYSTEM    = UTC
MEAN_ELEMENT_THEORY = SGP/SGP4

EPOCH          = 2025-11-06T21:44:00.880800
MEAN_MOTION    = 15.74271141
ECCENTRICITY   = .000072
INCLINATION    = 53.1575
RA_OF_ASC_NODE = 317.9206
ARG_OF_PERICENTER = 147.4859
MEAN_ANOMALY   = 212.6205

EPHEMERIS_TYPE = 0
CLASSIFICATION_TYPE = U
NORAD_CAT_ID   = 66112
ELEMENT_SET_NO = 999
REV_AT_EPOCH   = 409
BSTAR          = .21163E-2
MEAN_MOTION_DOT = .322619E-2
MEAN_MOTION_DDOT = 0

CCSDS_OMM_VERS = 2.0
CREATION_DATE  = 
ORIGINATOR     = 

OBJECT_NAME    = STARLINK-35491
OBJECT_ID      = 2025-236AD
CENTER_NAME    = EARTH
REF_FRAME      = TEME
TIME_SYSTEM    = UTC
MEAN_ELEMENT_THEORY = SGP/SGP4

EPOCH          = 2025-11-07T02:18:47.252736
MEAN_MOTION    = 15.74081022
ECCENTRICITY   = .0001494
INCLINATION    = 53.1576
RA_OF_ASC_NODE = 316.9777
ARG_OF_PERICENTER = 57.5354
MEAN_ANOMALY   = 302.5810

EPHEMERIS_TYPE = 0
CLASSIFICATION_TYPE = U
NORAD_CAT_ID   = 66113
ELEMENT_SET_NO = 999
REV_AT_EPOCH   = 412
BSTAR          = .11446E-2
MEAN_MOTION_DOT = .169621E-2
MEAN_MOTION_DDOT = 0

CCSDS_OMM_VERS = 2.0
CREATION_DATE  = 
ORIGINATOR     = 

OBJECT_NAME    = STARLINK-35496
OBJECT_ID      = 2025-237A
CENTER_NAME    = EARTH
REF_FRAME      = TEME
TIME_SYSTEM    = UTC
MEAN_ELEMENT_THEORY = SGP/SGP4

EPOCH          = 2025-11-07T04:00:03.000096
MEAN_MOTION    = 15.74429829
ECCENTRICITY   = .0001372
INCLINATION    = 53.1598
RA_OF_ASC_NODE = 256.3949
ARG_OF_PERICENTER = 61.9792
MEAN_ANOMALY   = 308.7093

EPHEMERIS_TYPE = 0
CLASSIFICATION_TYPE = U
NORAD_CAT_ID   = 66114
ELEMENT_SET_NO = 999
REV_AT_EPOCH   = 376
BSTAR          = -.14547E-1
MEAN_MOTION_DOT = -.1876399E-1
MEAN_MOTION_DDOT = 0

CCSDS_OMM_VERS = 2.0
CREATION_DATE  = 
ORIGINATOR     = 

OBJECT_NAME    = STARLINK-35428
OBJECT_ID      = 2025-237B
CENTER_NAME    = EARTH
REF_FRAME      = TEME
TIME_SYSTEM    = UTC
MEAN_ELEMENT_THEORY = SGP/SGP4

EPOCH          = 2025-11-07T04:00:03.000096
MEAN_MOTION    = 15.74447260
ECCENTRICITY   = .0001066
INCLINATION    = 53.1598
RA_OF_ASC_NODE = 256.3910
ARG_OF_PERICENTER = 118.7310
MEAN_ANOMALY   = 253.8609

EPHEMERIS_TYPE = 0
CLASSIFICATION_TYPE = U
NORAD_CAT_ID   = 66115
ELEMENT_SET_NO = 999
REV_AT_EPOCH   = 376
BSTAR          = -.14705E-1
MEAN_MOTION_DOT = -.1895058E-1
MEAN_MOTION_DDOT = 0

CCSDS_OMM_VERS = 2.0
CREATION_DATE  = 
ORIGINATOR     = 

OBJECT_NAME    = STARLINK-35573
OBJECT_ID      = 2025-237C
CENTER_NAME    = EARTH
REF_FRAME      = TEME
TIME_SYSTEM    = UTC
MEAN_ELEMENT_THEORY = SGP/SGP4

EPOCH          = 2025-11-07T04:00:03.000096
MEAN_MOTION    = 15.74458997
ECCENTRICITY   = .0000875
INCLINATION    = 53.1596
RA_OF_ASC_NODE = 256.3872
ARG_OF_PERICENTER = 85.9478
MEAN_ANOMALY   = 288.5594

EPHEMERIS_TYPE = 0
CLASSIFICATION_TYPE = U
NORAD_CAT_ID   = 66116
ELEMENT_SET_NO = 999
REV_AT_EPOCH   = 376
BSTAR          = -.14808E-1
MEAN_MOTION_DOT = -.1907199E-1
MEAN_MOTION_DDOT = 0

CCSDS_OMM_VERS = 2.0
CREATION_DATE  = 
ORIGINATOR     = 

OBJECT_NAME    = STARLINK-35572
OBJECT_ID      = 2025-237D
CENTER_NAME    = EARTH
REF_FRAME      = TEME
TIME_SYSTEM    = UTC
MEAN_ELEMENT_THEORY = SGP/SGP4

EPOCH          = 2025-11-07T04:00:03.000096
MEAN_MOTION    = 15.74456750
ECCENTRICITY   = .0000868
INCLINATION    = 53.1596
RA_OF_ASC_NODE = 256.3792
ARG_OF_PERICENTER = 68.3828
MEAN_ANOMALY   = 309.9514

EPHEMERIS_TYPE = 0
CLASSIFICATION_TYPE = U
NORAD_CAT_ID   = 66117
ELEMENT_SET_NO = 999
REV_AT_EPOCH   = 376
BSTAR          = -.14731E-1
MEAN_MOTION_DOT = -.1898369E-1
MEAN_MOTION_DDOT = 0

CCSDS_OMM_VERS = 2.0
CREATION_DATE  = 
ORIGINATOR     = 

OBJECT_NAME    = STARLINK-35468
OBJECT_ID      = 2025-237E
CENTER_NAME    = EARTH
REF_FRAME      = TEME
TIME_SYSTEM    = UTC
MEAN_ELEMENT_THEORY = SGP/SGP4

EPOCH          = 2025-11-07T04:00:03.000096
MEAN_MOTION    = 15.74397888
ECCENTRICITY   = .0000942
INCLINATION    = 53.1596
RA_OF_ASC_NODE = 256.3828
ARG_OF_PERICENTER = 75.2349
MEAN_ANOMALY   = 301.2531

EPHEMERIS_TYPE = 0
CLASSIFICATION_TYPE = U
NORAD_CAT_ID   = 66118
ELEMENT_SET_NO = 999
REV_AT_EPOCH   = 376
BSTAR          = -.14461E-1
MEAN_MOTION_DOT = -.1864056E-1
MEAN_MOTION_DDOT = 0

CCSDS_OMM_VERS = 2.0
CREATION_DATE  = 
ORIGINATOR     = 

OBJECT_NAME    = STARLINK-35547
OBJECT_ID      = 2025-237F
CENTER_NAME    = EARTH
REF_FRAME      = TEME
TIME_SYSTEM    = UTC
MEAN_ELEMENT_THEORY = SGP/SGP4

EPOCH          = 2025-11-07T04:00:03.000096
MEAN_MOTION    = 15.74462935
ECCENTRICITY   = .0001027
INCLINATION    = 53.1596
RA_OF_ASC_NODE = 256.3668
ARG_OF_PERICENTER = 41.4861
MEAN_ANOMALY   = 342.5957

EPHEMERIS_TYPE = 0
CLASSIFICATION_TYPE = U
NORAD_CAT_ID   = 66119
ELEMENT_SET_NO = 999
REV_AT_EPOCH   = 376
BSTAR          = -.14812E-1
MEAN_MOTION_DOT = -.1907994E-1
MEAN_MOTION_DDOT = 0

CCSDS_OMM_VERS = 2.0
CREATION_DATE  = 
ORIGINATOR     = 

OBJECT_NAME    = STARLINK-35553
OBJECT_ID      = 2025-237G
CENTER_NAME    = EARTH
REF_FRAME      = TEME
TIME_SYSTEM    = UTC
MEAN_ELEMENT_THEORY = SGP/SGP4

EPOCH          = 2025-11-07T04:00:03.000096
MEAN_MOTION    = 15.74469246
ECCENTRICITY   = .0000884
INCLINATION    = 53.1597
RA_OF_ASC_NODE = 256.3754
ARG_OF_PERICENTER = 83.5219
MEAN_ANOMALY   = 296.7219

EPHEMERIS_TYPE = 0
CLASSIFICATION_TYPE = U
NORAD_CAT_ID   = 66120
ELEMENT_SET_NO = 999
REV_AT_EPOCH   = 376
BSTAR          = -.1483E-1
MEAN_MOTION_DOT = -.1910416E-1
MEAN_MOTION_DDOT = 0

